[
    {
        "Altitude(m)": 622200.1447628787,
        "Argument of Periapsis(deg)": 0.0,
        "Eccentricity": 0.0,
        "Inclination(deg)": 60.0,
        "Latitude(deg)": -52.16264189840063,
        "Longitude(deg)": -117.63931713133513,
        "Mean Anomaly(deg)": 294.5455,
        "RAAN(deg)": 30.0,
        "Satellite Name": "Test1 150",
        "Satellite Number": 150,
        "Semi-Major Axis(m)": 6980739.136638005,
        "Time(s)": 0
    },
    {
        "Altitude(m)": 622058.3128917324,
        "Argument of Periapsis(deg)": 0.00010418945913296404,
        "Eccentricity": 0.0,
        "Inclination(deg)": 60.0,
        "Latitude(deg)": -51.79939227883931,
        "Longitude(deg)": -116.87125657937061,
        "Mean Anomaly(deg)": 295.1656061454619,
        "RAAN(deg)": 29.99957995086026,
        "Satellite Name": "Test1 150",
        "Satellite Number": 150,
        "Semi-Major Axis(m)": 6980739.136638005,
        "Time(s)": 10
    }
]